{"type": "FeatureCollection", "features": [ {"type": "Feature", "properties": {"norad_id": 64901, "name": "CO3D 4", "group": "resource", "lat": 43.336109228273834, "lon": 53.80452706771072, "alt_km": 502.4706579897047, "timestamp": "2025-12-10T11:33:53.049427+00:00", "meta": {"OBJECT_NAME": "CO3D 4", "OBJECT_ID": "2025-156C", "EPOCH": "2025-12-09T21:09:17.831232", "MEAN_MOTION": 15.20201124, "ECCENTRICITY": 0.0001172, "INCLINATION": 97.4339, "RA_OF_ASC_NODE": 60.2895, "ARG_OF_PERICENTER": 212.2858, "MEAN_ANOMALY": 147.8305, "EPHEMERIS_TYPE": 0, "CLASSIFICATION_TYPE": "U", "NORAD_CAT_ID": 64901, "ELEMENT_SET_NO": 999, "REV_AT_EPOCH": 2077, "BSTAR": -2.5807e-05, "MEAN_MOTION_DOT": -6.26e-06, "MEAN_MOTION_DDOT": 0}, "tle": {"line1": "1 64901U 25156C   25343.88145638 -.00000626  00000+0 -25807-4 0  9990", "line2": "2 64901  97.4339  60.2895 0001172 212.2858 147.8305 15.20201124 20778"}}, "geometry": {"type": "Point", "coordinates": [53.80452706771072, 43.336109228273834]}}, {"type": "Feature", "properties": {"norad_id": 64902, "name": "CO3D 2", "group": "resource", "lat": -45.04187541212141, "lon": -126.730051657238, "alt_km": 510.75628886636696, "timestamp": "2025-12-10T11:33:53.049437+00:00", "meta": {"OBJECT_NAME": "CO3D 2", "OBJECT_ID": "2025-156D", "EPOCH": "2025-12-09T12:27:23.938848", "MEAN_MOTION": 15.20057842, "ECCENTRICITY": 0.00090681, "INCLINATION": 97.4213, "RA_OF_ASC_NODE": 59.8234, "ARG_OF_PERICENTER": 303.4369, "MEAN_ANOMALY": 56.5998, "EPHEMERIS_TYPE": 0, "CLASSIFICATION_TYPE": "U", "NORAD_CAT_ID": 64902, "ELEMENT_SET_NO": 999, "REV_AT_EPOCH": 2071, "BSTAR": 0.00028838885, "MEAN_MOTION_DOT": 6.16e-05, "MEAN_MOTION_DDOT": 0}, "tle": {"line1": "1 64902U 25156D   25343.51902707  .00006160  00000+0  28839-3 0  9993", "line2": "2 64902  97.4213  59.8234 0009068 303.4369  56.5998 15.20057842 20717"}}, "geometry": {"type": "Point", "coordinates": [-126.730051657238, -45.04187541212141]}}, {"type": "Feature", "properties": {"norad_id": 64903, "name": "CO3D 1", "group": "resource", "lat": -45.07248638686314, "lon": -126.74174404300474, "alt_km": 512.3911404003848, "timestamp": "2025-12-10T11:33:53.049447+00:00", "meta": {"OBJECT_NAME": "CO3D 1", "OBJECT_ID": "2025-156E", "EPOCH": "2025-12-10T04:15:25.429824", "MEAN_MOTION": 15.20218202, "ECCENTRICITY": 9.31e-05, "INCLINATION": 97.4338, "RA_OF_ASC_NODE": 60.4797, "ARG_OF_PERICENTER": 93.532, "MEAN_ANOMALY": 266.6022, "EPHEMERIS_TYPE": 0, "CLASSIFICATION_TYPE": "U", "NORAD_CAT_ID": 64903, "ELEMENT_SET_NO": 999, "REV_AT_EPOCH": 2081, "BSTAR": 0.00038654, "MEAN_MOTION_DOT": 8.313e-05, "MEAN_MOTION_DDOT": 0}, "tle": {"line1": "1 64903U 25156E   25344.17737766  .00008313  00000+0  38654-3 0  9996", "line2": "2 64903  97.4338  60.4797 0000931  93.5320 266.6022 15.20218202 20814"}}, "geometry": {"type": "Point", "coordinates": [-126.74174404300474, -45.07248638686314]}}, {"type": "Feature", "properties": {"norad_id": 66514, "name": "SENTINEL-6B", "group": "resource", "lat": 44.852535194656184, "lon": -39.13479490270121, "alt_km": 1332.573790405766, "timestamp": "2025-12-10T11:33:53.049457+00:00", "meta": {"OBJECT_NAME": "SENTINEL-6B", "OBJECT_ID": "2025-264A", "EPOCH": "2025-12-08T23:22:28.384896", "MEAN_MOTION": 12.84031992, "ECCENTRICITY": 0.00210406, "INCLINATION": 66.0385, "RA_OF_ASC_NODE": 170.2707, "ARG_OF_PERICENTER": 268.23, "MEAN_ANOMALY": 91.6307, "EPHEMERIS_TYPE": 0, "CLASSIFICATION_TYPE": "U", "NORAD_CAT_ID": 66514, "ELEMENT_SET_NO": 999, "REV_AT_EPOCH": 280, "BSTAR": 0.000106025, "MEAN_MOTION_DOT": -3.6e-07, "MEAN_MOTION_DDOT": 0}, "tle": {"line1": "1 66514U 25264A   25342.97393964 -.00000036  00000+0  10602-3 0  9998", "line2": "2 66514  66.0385 170.2707 0021040 268.2300  91.6307 12.84031992  2809"}}, "geometry": {"type": "Point", "coordinates": [-39.13479490270121, 44.852535194656184]}}]}